******** Week 829 almanac for PRN-19 ********
ID:                         19
Health:                     000
Eccentricity:               0.0E-000
Time of Applicability(s):   432000.0000
Orbital Inclination(rad):   0.9599310886
Rate of Right Ascen(r/s):   0.0E-000
SQRT(A)  (m^1/2):           5153.620087
Right Ascen at TOA(rad):   -2.1337173704E+000
Argument of Perigee(rad):   0.0
Mean Anom(rad):             5.8239193678E+000
Af0(s):                     0.0E-000
Af1(s/s):                   0.0E-000
week:                       829

******** Week 829 almanac for PRN-20 ********
ID:                         20
Health:                     000
Eccentricity:               0.0E-000
Time of Applicability(s):   432000.0000
Orbital Inclination(rad):   0.9599310886
Rate of Right Ascen(r/s):   0.0E-000
SQRT(A)  (m^1/2):           5153.620087
Right Ascen at TOA(rad):   -2.1337173704E+000
Argument of Perigee(rad):   0.0
Mean Anom(rad):             1.1530692236E+000
Af0(s):                     0.0E-000
Af1(s/s):                   0.0E-000
week:                       829

******** Week 829 almanac for PRN-21 ********
ID:                         21
Health:                     000
Eccentricity:               0.0E-000
Time of Applicability(s):   432000.0000
Orbital Inclination(rad):   0.9599310886
Rate of Right Ascen(r/s):   0.0E-000
SQRT(A)  (m^1/2):           5153.620087
Right Ascen at TOA(rad):   -1.0865198192E+000
Argument of Perigee(rad):   0.0
Mean Anom(rad):             4.1693472369E+000
Af0(s):                     0.0E-000
Af1(s/s):                   0.0E-000
week:                       829

******** Week 829 almanac for PRN-22 ********
ID:                         22
Health:                     000
Eccentricity:               0.0E-000
Time of Applicability(s):   432000.0000
Orbital Inclination(rad):   0.9599310886
Rate of Right Ascen(r/s):   0.0E-000
SQRT(A)  (m^1/2):           5153.620087
Right Ascen at TOA(rad):   -1.0865198192E+000
Argument of Perigee(rad):   0.0
Mean Anom(rad):             6.0253303635E+000
Af0(s):                     0.0E-000
Af1(s/s):                   0.0E-000
week:                       829

******** Week 829 almanac for PRN-23 ********
ID:                         23
Health:                     000
Eccentricity:               0.0E-000
Time of Applicability(s):   432000.0000
Orbital Inclination(rad):   0.9599310886
Rate of Right Ascen(r/s):   0.0E-000
SQRT(A)  (m^1/2):           5153.620087
Right Ascen at TOA(rad):   -1.0865198192E+000
Argument of Perigee(rad):   0.0
Mean Anom(rad):             1.8361910928E+000
Af0(s):                     0.0E-000
Af1(s/s):                   0.0E-000
week:                       829

******** Week 829 almanac for PRN-24 ********
ID:                         24
Health:                     000
Eccentricity:               0.0E-000
Time of Applicability(s):   432000.0000
Orbital Inclination(rad):   0.9599310886
Rate of Right Ascen(r/s):   0.0E-000
SQRT(A)  (m^1/2):           5153.620087
Right Ascen at TOA(rad):   -1.0865198192E+000
Argument of Perigee(rad):   0.0
Mean Anom(rad):             2.3622333294E+000
Af0(s):                     0.0E-000
Af1(s/s):                   0.0E-000
week:                       829

